{
  "type": "FeatureCollection",
  "features": [
    {
      "type": "Feature",
      "properties": {
        "norad_id": 35744,
        "name": "IRIDIUM 33 DEB",
        "group": "iridium-33-debris",
        "lat": 64.98242756066391,
        "lon": 134.14041441193302,
        "alt_km": 642.0371515126817,
        "timestamp": "2025-12-20T05:41:50.416513+00:00",
        "meta_object_name": "IRIDIUM 33 DEB",
        "meta_object_id": "1997-051RX",
        "meta_epoch": "2025-12-18T04:12:04.449600",
        "meta_mean_motion": 14.71066119,
        "meta_eccentricity": 0.00209704,
        "meta_inclination": 86.329,
        "meta_ra_of_asc_node": 322.9794,
        "meta_arg_of_pericenter": 172.7789,
        "meta_mean_anomaly": 187.3734,
        "meta_ephemeris_type": 0,
        "meta_classification_type": "U",
        "meta_norad_cat_id": 35744,
        "meta_element_set_no": 999,
        "meta_rev_at_epoch": 87411,
        "meta_bstar": 0.00085332597,
        "meta_mean_motion_dot": 5.283e-05,
        "meta_mean_motion_ddot": 0,
        "tle_line1": "1 35744U 97051RX  25352.17505150  .00005283  00000+0  85333-3 0  9998",
        "tle_line2": "2 35744  86.3290 322.9794 0020970 172.7789 187.3734 14.71066119874118"
      },
      "geometry": {
        "type": "Point",
        "coordinates": [
          134.14041441193302,
          64.98242756066391
        ]
      }
    },
    {
      "type": "Feature",
      "properties": {
        "norad_id": 35797,
        "name": "IRIDIUM 33 DEB",
        "group": "iridium-33-debris",
        "lat": 16.792452777041955,
        "lon": 145.42090878494787,
        "alt_km": 613.2700478062752,
        "timestamp": "2025-12-20T05:41:50.416523+00:00",
        "meta_object_name": "IRIDIUM 33 DEB",
        "meta_object_id": "1997-051SF",
        "meta_epoch": "2025-12-12T05:51:50.415264",
        "meta_mean_motion": 14.82743783,
        "meta_eccentricity": 0.00133704,
        "meta_inclination": 86.3362,
        "meta_ra_of_asc_node": 330.2007,
        "meta_arg_of_pericenter": 149.5686,
        "meta_mean_anomaly": 210.6315,
        "meta_ephemeris_type": 0,
        "meta_classification_type": "U",
        "meta_norad_cat_id": 35797,
        "meta_element_set_no": 999,
        "meta_rev_at_epoch": 87333,
        "meta_bstar": 0.0026694194,
        "meta_mean_motion_dot": 0.00021655,
        "meta_mean_motion_ddot": 0,
        "tle_line1": "1 35797U 97051SF  25346.24433351  .00021655  00000+0  26694-2 0  9995",
        "tle_line2": "2 35797  86.3362 330.2007 0013370 149.5686 210.6315 14.82743783873338"
      },
      "geometry": {
        "type": "Point",
        "coordinates": [
          145.42090878494787,
          16.792452777041955
        ]
      }
    },
    {
      "type": "Feature",
      "properties": {
        "norad_id": 35806,
        "name": "IRIDIUM 33 DEB",
        "group": "iridium-33-debris",
        "lat": 39.24805649802472,
        "lon": -165.66613781776135,
        "alt_km": 698.5493894549636,
        "timestamp": "2025-12-20T05:41:50.416534+00:00",
        "meta_object_name": "IRIDIUM 33 DEB",
        "meta_object_id": "1997-051SQ",
        "meta_epoch": "2025-12-16T08:46:37.248096",
        "meta_mean_motion": 14.57379748,
        "meta_eccentricity": 0.00158634,
        "meta_inclination": 86.3444,
        "meta_ra_of_asc_node": 19.032,
        "meta_arg_of_pericenter": 64.1996,
        "meta_mean_anomaly": 296.0847,
        "meta_ephemeris_type": 0,
        "meta_classification_type": "U",
        "meta_norad_cat_id": 35806,
        "meta_element_set_no": 999,
        "meta_rev_at_epoch": 86377,
        "meta_bstar": 0.00073764812,
        "meta_mean_motion_dot": 3.369e-05,
        "meta_mean_motion_ddot": 0,
        "tle_line1": "1 35806U 97051SQ  25350.36570889  .00003369  00000+0  73765-3 0  9996",
        "tle_line2": "2 35806  86.3444  19.0320 0015863  64.1996 296.0847 14.57379748863778"
      },
      "geometry": {
        "type": "Point",
        "coordinates": [
          -165.66613781776135,
          39.24805649802472
        ]
      }
    },
    {
      "type": "Feature",
      "properties": {
        "norad_id": 35809,
        "name": "IRIDIUM 33 DEB",
        "group": "iridium-33-debris",
        "lat": -77.09163853085548,
        "lon": -44.331521319714135,
        "alt_km": 646.5465703237369,
        "timestamp": "2025-12-20T05:41:50.416544+00:00",
        "meta_object_name": "IRIDIUM 33 DEB",
        "meta_object_id": "1997-051ST",
        "meta_epoch": "2025-12-10T16:35:56.421600",
        "meta_mean_motion": 14.75629145,
        "meta_eccentricity": 0.00097103,
        "meta_inclination": 86.329,
        "meta_ra_of_asc_node": 336.2813,
        "meta_arg_of_pericenter": 251.0565,
        "meta_mean_anomaly": 108.9602,
        "meta_ephemeris_type": 0,
        "meta_classification_type": "U",
        "meta_norad_cat_id": 35809,
        "meta_element_set_no": 999,
        "meta_rev_at_epoch": 86777,
        "meta_bstar": 0.0026432017,
        "meta_mean_motion_dot": 0.00018102,
        "meta_mean_motion_ddot": 0,
        "tle_line1": "1 35809U 97051ST  25344.69162525  .00018102  00000+0  26432-2 0  9991",
        "tle_line2": "2 35809  86.3290 336.2813 0009710 251.0565 108.9602 14.75629145867777"
      },
      "geometry": {
        "type": "Point",
        "coordinates": [
          -44.331521319714135,
          -77.09163853085548
        ]
      }
    },
    {
      "type": "Feature",
      "properties": {
        "norad_id": 35846,
        "name": "IRIDIUM 33 DEB",
        "group": "iridium-33-debris",
        "lat": -82.49164719822828,
        "lon": -95.60150201366669,
        "alt_km": 761.6444109976064,
        "timestamp": "2025-12-20T05:41:50.416555+00:00",
        "meta_object_name": "IRIDIUM 33 DEB",
        "meta_object_id": "1997-051SW",
        "meta_epoch": "2025-12-19T21:49:32.159136",
        "meta_mean_motion": 14.43182687,
        "meta_eccentricity": 0.00194699,
        "meta_inclination": 86.3741,
        "meta_ra_of_asc_node": 55.781,
        "meta_arg_of_pericenter": 147.8852,
        "meta_mean_anomaly": 212.3539,
        "meta_ephemeris_type": 0,
        "meta_classification_type": "U",
        "meta_norad_cat_id": 35846,
        "meta_element_set_no": 999,
        "meta_rev_at_epoch": 71432,
        "meta_bstar": 0.00035967938,
        "meta_mean_motion_dot": 1.231e-05,
        "meta_mean_motion_ddot": 0,
        "tle_line1": "1 35846U 97051SW  25353.90939999  .00001231  00000+0  35968-3 0  9993",
        "tle_line2": "2 35846  86.3741  55.7810 0019469 147.8852 212.3539 14.43182687714323"
      },
      "geometry": {
        "type": "Point",
        "coordinates": [
          -95.60150201366669,
          -82.49164719822828
        ]
      }
    },
    {
      "type": "Feature",
      "properties": {
        "norad_id": 35848,
        "name": "IRIDIUM 33 DEB",
        "group": "iridium-33-debris",
        "lat": -47.48844643403151,
        "lon": 8.803341860948807,
        "alt_km": 645.1568800714031,
        "timestamp": "2025-12-20T05:41:50.416565+00:00",
        "meta_object_name": "IRIDIUM 33 DEB",
        "meta_object_id": "1997-051SY",
        "meta_epoch": "2025-12-16T19:05:07.807200",
        "meta_mean_motion": 14.78723023,
        "meta_eccentricity": 0.00083075,
        "meta_inclination": 86.3897,
        "meta_ra_of_asc_node": 14.3007,
        "meta_arg_of_pericenter": 174.3439,
        "meta_mean_anomaly": 185.7876,
        "meta_ephemeris_type": 0,
        "meta_classification_type": "U",
        "meta_norad_cat_id": 35848,
        "meta_element_set_no": 999,
        "meta_rev_at_epoch": 66750,
        "meta_bstar": 0.0011327955,
        "meta_mean_motion_dot": 8.343e-05,
        "meta_mean_motion_ddot": 0,
        "tle_line1": "1 35848U 97051SY  25350.79522925  .00008343  00000+0  11328-2 0  9990",
        "tle_line2": "2 35848  86.3897  14.3007 0008307 174.3439 185.7876 14.78723023667508"
      },
      "geometry": {
        "type": "Point",
        "coordinates": [
          8.803341860948807,
          -47.48844643403151
        ]
      }
    },
    {
      "type": "Feature",
      "properties": {
        "norad_id": 35850,
        "name": "IRIDIUM 33 DEB",
        "group": "iridium-33-debris",
        "lat": -76.67737686136708,
        "lon": -34.8060643168079,
        "alt_km": 643.9110429959974,
        "timestamp": "2025-12-20T05:41:50.416576+00:00",
        "meta_object_name": "IRIDIUM 33 DEB",
        "meta_object_id": "1997-051TA",
        "meta_epoch": "2025-12-17T06:35:50.424288",
        "meta_mean_motion": 14.78922738,
        "meta_eccentricity": 0.00098245,
        "meta_inclination": 86.3492,
        "meta_ra_of_asc_node": 342.1832,
        "meta_arg_of_pericenter": 168.4252,
        "meta_mean_anomaly": 191.7196,
        "meta_ephemeris_type": 0,
        "meta_classification_type": "U",
        "meta_norad_cat_id": 35850,
        "meta_element_set_no": 999,
        "meta_rev_at_epoch": 71424,
        "meta_bstar": 0.0012101447,
        "meta_mean_motion_dot": 8.956e-05,
        "meta_mean_motion_ddot": 0,
        "tle_line1": "1 35850U 97051TA  25351.27488917  .00008956  00000+0  12101-2 0  9999",
        "tle_line2": "2 35850  86.3492 342.1832 0009824 168.4252 191.7196 14.78922738714242"
      },
      "geometry": {
        "type": "Point",
        "coordinates": [
          -34.8060643168079,
          -76.67737686136708
        ]
      }
    }
  ]
}